$$SOE
2461302.500000000, A.D. 2026-Sep-19 00:00:00.0000, 1.627704494422841E+07, 3.341504965226616E+08, -8.864370999924451E+06,
2461309.500000000, A.D. 2026-Sep-26 00:00:00.0000, 4.292231260263090E+06, 3.337767902876018E+08, -8.451788458428532E+06,
2461316.500000000, A.D. 2026-Oct-03 00:00:00.0000, -7.698246784088789E+06, 3.329679237279457E+08, -8.028183344704971E+06,
2461323.500000000, A.D. 2026-Oct-10 00:00:00.0000, -1.967869085233245E+07, 3.317219829727873E+08, -7.594036253678173E+06,
2461330.500000000, A.D. 2026-Oct-17 00:00:00.0000, -3.163319922150150E+07, 3.300376033355466E+08, -7.149848309687197E+06,
2461337.500000000, A.D. 2026-Oct-24 00:00:00.0000, -4.354568393445767E+07, 3.279139866256011E+08, -6.696141025816709E+06,
2461344.500000000, A.D. 2026-Oct-31 00:00:00.0000, -5.539988919773556E+07, 3.253509180438800E+08, -6.233456134010240E+06,
2461351.500000000, A.D. 2026-Nov-07 00:00:00.0000, -6.717941072277209E+07, 3.223487826418091E+08, -5.762355407129914E+06,
2461358.500000000, A.D. 2026-Nov-14 00:00:00.0000, -7.886771584277840E+07, 3.189085821319121E+08, -5.283420415136367E+06,
2461365.500000000, A.D. 2026-Nov-21 00:00:00.0000, -9.044816624259044E+07, 3.150319526318270E+08, -4.797251990576893E+06,
2461372.500000000, A.D. 2026-Nov-28 00:00:00.0000, -1.019040443102923E+08, 3.107211802213389E+08, -4.304469554449841E+06,
2461379.500000000, A.D. 2026-Dec-05 00:00:00.0000, -1.132185794997533E+08, 3.059792135282426E+08, -3.805710683273718E+06,
2461386.500000000, A.D. 2026-Dec-12 00:00:00.0000, -1.243749745429752E+08, 3.008096763370101E+08, -3.301630675504759E+06,
2461393.500000000, A.D. 2026-Dec-19 00:00:00.0000, -1.353564333796575E+08, 2.952168801017257E+08, -2.792901941512540E+06,
2461400.500000000, A.D. 2026-Dec-26 00:00:00.0000, -1.461461909168389E+08, 2.892058353498514E+08, -2.280213271140009E+06,
2461407.500000000, A.D. 2027-Jan-02 00:00:00.0000, -1.567275443130103E+08, 2.827822616366279E+08, -1.764269015805751E+06,
2461414.500000000, A.D. 2027-Jan-09 00:00:00.0000, -1.670838856356426E+08, 2.759525959297782E+08, -1.245788191524073E+06,
2461421.500000000, A.D. 2027-Jan-16 00:00:00.0000, -1.771987358079812E+08, 2.687239993038142E+08, -7.255035042288750E+05,
2461428.500000000, A.D. 2027-Jan-23 00:00:00.0000, -1.870557797275583E+08, 2.611043617777856E+08, -2.041603046880811E+05,
2461435.500000000, A.D. 2027-Jan-30 00:00:00.0000, -1.966389022750529E+08, 2.531023051163052E+08, 3.174845057797879E+05,
2461442.500000000, A.D. 2027-Feb-06 00:00:00.0000, -2.059322246796027E+08, 2.447271837942654E+08, 8.386636073708385E+05,
2461449.500000000, A.D. 2027-Feb-13 00:00:00.0000, -2.149201415836697E+08, 2.359890852048482E+08, 1.358600572654396E+06,
2461456.500000000, A.D. 2027-Feb-20 00:00:00.0000, -2.235873610483754E+08, 2.268988281923296E+08, 1.876511506156877E+06,
2461463.500000000, A.D. 2027-Feb-27 00:00:00.0000, -2.319189459604320E+08, 2.174679565827790E+08, 2.391606619381174E+06,
2461470.500000000, A.D. 2027-Mar-06 00:00:00.0000, -2.399003536596136E+08, 2.077087295224212E+08, 2.903091619866341E+06,
2461477.500000000, A.D. 2027-Mar-13 00:00:00.0000, -2.475174752233276E+08, 1.976341105788277E+08, 3.410169225002050E+06,
2461484.500000000, A.D. 2027-Mar-20 00:00:00.0000, -2.547566753562618E+08, 1.872577547017208E+08, 3.912040830763906E+06,
2461491.500000000, A.D. 2027-Mar-27 00:00:00.0000, -2.616048324788088E+08, 1.765939924342056E+08, 4.407908266906187E+06,
2461498.500000000, A.D. 2027-Apr-03 00:00:00.0000, -2.680493785959007E+08, 1.656578112769440E+08, 4.896975610482648E+06,
2461505.500000000, A.D. 2027-Apr-10 00:00:00.0000, -2.740783386620194E+08, 1.544648341957988E+08, 5.378451047387466E+06,
2461512.500000000, A.D. 2027-Apr-17 00:00:00.0000, -2.796803691905795E+08, 1.430312952459330E+08, 5.851548771286741E+06,
2461519.500000000, A.D. 2027-Apr-24 00:00:00.0000, -2.848447957933589E+08, 1.313740122586559E+08, 6.315490899430886E+06,
2461526.500000000, A.D. 2027-May-01 00:00:00.0000, -2.895616491114730E+08, 1.195103566493767E+08, 6.769509371337518E+06,
2461533.500000000, A.D. 2027-May-08 00:00:00.0000, -2.938216985898063E+08, 1.074582211479250E+08, 7.212847853933871E+06,
2461540.500000000, A.D. 2027-May-15 00:00:00.0000, -2.976164853538225E+08, 9.523598647975871E+07, 7.644763858316556E+06,
2461547.500000000, A.D. 2027-May-22 00:00:00.0000, -3.009383555245630E+08, 8.286248450729252E+07, 8.064530988949113E+06,
2461554.500000000, A.D. 2027-May-29 00:00:00.0000, -3.037804903916643E+08, 7.035695649373803E+07, 8.471440886806075E+06,
2461561.500000000, A.D. 2027-Jun-05 00:00:00.0000, -3.061369323301477E+08, 5.773900977025992E+07, 8.864805031129908E+06,
2461568.500000000, A.D. 2027-Jun-12 00:00:00.0000, -3.080026082568191E+08, 4.502857340028436E+07, 9.243956608113138E+06,
2461575.500000000, A.D. 2027-Jun-19 00:00:00.0000, -3.093733507729008E+08, 3.224585209538354E+07, 9.608252388669252E+06,
2461582.500000000, A.D. 2027-Jun-26 00:00:00.0000, -3.102459165422805E+08, 1.941127833672573E+07, 9.957074557242163E+06,
2461589.500000000, A.D. 2027-Jul-03 00:00:00.0000, -3.106180016161883E+08, 6.545462942012815E+06, 1.028983246968383E+07,
2461596.500000000, A.D. 2027-Jul-10 00:00:00.0000, -3.104882535317603E+08, -6.330855667387431E+06, 1.060596432723207E+07,
2461603.500000000, A.D. 2027-Jul-17 00:00:00.0000, -3.098562800367700E+08, -1.919686327818566E+07, 1.090493875014068E+07,
2461610.500000000, A.D. 2027-Jul-24 00:00:00.0000, -3.087226541981289E+08, -3.203172256704149E+07, 1.118625622208098E+07,
2461617.500000000, A.D. 2027-Jul-31 00:00:00.0000, -3.070889154227026E+08, -4.481462613647027E+07, 1.144945037808938E+07,
2461624.500000000, A.D. 2027-Aug-07 00:00:00.0000, -3.049575665571380E+08, -5.752484846687073E+07, 1.169408924052390E+07,
2461631.500000000, A.D. 2027-Aug-14 00:00:00.0000, -3.023320693618373E+08, -7.014179675109150E+07, 1.191977658586853E+07,
2461638.500000000, A.D. 2027-Aug-21 00:00:00.0000, -2.992168377690079E+08, -8.264506369148701E+07, 1.212615310407487E+07,
2461645.500000000, A.D. 2027-Aug-28 00:00:00.0000, -2.956172255535524E+08, -9.501448077200980E+07, 1.231289712906424E+07,
2461652.500000000, A.D. 2027-Sep-04 00:00:00.0000, -2.915395096777917E+08, -1.072301692202429E+08, 1.247972524964229E+07,
2461659.500000000, A.D. 2027-Sep-11 00:00:00.0000, -2.869908708062746E+08, -1.192725890494644E+08, 1.262639287159379E+07,
2461666.500000000, A.D. 2027-Sep-18 00:00:00.0000, -2.819793709884266E+08, -1.311225865740018E+08, 1.275269466308780E+07,
2461673.500000000, A.D. 2027-Sep-25 00:00:00.0000, -2.765139284355131E+08, -1.427614402270131E+08, 1.285846485509709E+07,
2461680.500000000, A.D. 2027-Oct-02 00:00:00.0000, -2.706042894828563E+08, -1.541709044176995E+08, 1.294357739229152E+07,
2461687.500000000, A.D. 2027-Oct-09 00:00:00.0000, -2.642609978918769E+08, -1.653332512244705E+08, 1.300794593233045E+07,
2461694.500000000, A.D. 2027-Oct-16 00:00:00.0000, -2.574953616293912E+08, -1.762313098049549E+08, 1.305152368441905E+07,
2461701.500000000, A.D. 2027-Oct-23 00:00:00.0000, -2.503194170943702E+08, -1.868485033811204E+08, 1.307430306580456E+07,
2461708.500000000, A.D. 2027-Oct-30 00:00:00.0000, -2.427458906672994E+08, -1.971688830578880E+08, 1.307631519669260E+07,
2461715.500000000, A.D. 2027-Nov-06 00:00:00.0000, -2.347881589995958E+08, -2.071771572304745E+08, 1.305762943856684E+07,
2461722.500000000, A.D. 2027-Nov-13 00:00:00.0000, -2.264602102795234E+08, -2.168587185624829E+08, 1.301835299465750E+07,
2461729.500000000, A.D. 2027-Nov-20 00:00:00.0000, -2.177766038247770E+08, -2.261996706561189E+08, 1.295863013463736E+07,
2461736.500000000, A.D. 2027-Nov-27 00:00:00.0000, -2.087524266381555E+08, -2.351868514117707E+08, 1.287864114539744E+07,
2461743.500000000, A.D. 2027-Dec-04 00:00:00.0000, -1.994032492000587E+08, -2.438078521457636E+08, 1.277860127672879E+07,
2461750.500000000, A.D. 2027-Dec-11 00:00:00.0000, -1.897450812913666E+08, -2.520510334342342E+08, 1.265875966215318E+07,
2461757.500000000, A.D. 2027-Dec-18 00:00:00.0000, -1.797943278060248E+08, -2.599055380497875E+08, 1.251939817019218E+07,
2461764.500000000, A.D. 2027-Dec-25 00:00:00.0000, -1.695677446282347E+08, -2.673613010456242E+08, 1.236083018037412E+07,
2461771.500000000, A.D. 2028-Jan-01 00:00:00.0000, -1.590823947528749E+08, -2.744090570457517E+08, 1.218339929060221E+07,
$$EOE